{
  "type": "FeatureCollection",
  "features": [
    {
      "type": "Feature",
      "properties": {
        "norad_id": 37464,
        "name": "FENGYUN 1C DEB",
        "group": "fengyun-1c-debris",
        "lat": -1.2399314290824899,
        "lon": 97.79738510314172,
        "alt_km": 992.9409554997537,
        "timestamp": "2025-12-18T10:51:26.097123+00:00",
        "meta_object_name": "FENGYUN 1C DEB",
        "meta_object_id": "1999-025EJJ",
        "meta_epoch": "2025-12-17T01:55:22.822464",
        "meta_mean_motion": 13.46929018,
        "meta_eccentricity": 0.04535861,
        "meta_inclination": 102.7053,
        "meta_ra_of_asc_node": 276.3358,
        "meta_arg_of_pericenter": 107.6712,
        "meta_mean_anomaly": 257.4457,
        "meta_ephemeris_type": 0,
        "meta_classification_type": "U",
        "meta_norad_cat_id": 37464,
        "meta_element_set_no": 999,
        "meta_rev_at_epoch": 60980,
        "meta_bstar": 0.0027782336,
        "meta_mean_motion_dot": 3.098e-05,
        "meta_mean_motion_ddot": 0,
        "tle_line1": "1 37464U 99025EJJ 25351.08012526  .00003098  00000+0  27782-2 0  9996",
        "tle_line2": "2 37464 102.7053 276.3358 0453586 107.6712 257.4457 13.46929018609803"
      },
      "geometry": {
        "type": "Point",
        "coordinates": [
          97.79738510314172,
          -1.2399314290824899
        ]
      }
    },
    {
      "type": "Feature",
      "properties": {
        "norad_id": 37470,
        "name": "FENGYUN 1C DEB",
        "group": "fengyun-1c-debris",
        "lat": 68.7661188929525,
        "lon": -20.352543748754538,
        "alt_km": 554.3286754259143,
        "timestamp": "2025-12-18T10:51:26.097134+00:00",
        "meta_object_name": "FENGYUN 1C DEB",
        "meta_object_id": "1999-025EJQ",
        "meta_epoch": "2025-12-17T08:47:23.171424",
        "meta_mean_motion": 15.01909134,
        "meta_eccentricity": 5.244e-05,
        "meta_inclination": 98.6682,
        "meta_ra_of_asc_node": 135.3168,
        "meta_arg_of_pericenter": 304.7318,
        "meta_mean_anomaly": 55.3854,
        "meta_ephemeris_type": 0,
        "meta_classification_type": "U",
        "meta_norad_cat_id": 37470,
        "meta_element_set_no": 999,
        "meta_rev_at_epoch": 65531,
        "meta_bstar": 0.0040318485,
        "meta_mean_motion_dot": 0.00053013,
        "meta_mean_motion_ddot": 0,
        "tle_line1": "1 37470U 99025EJQ 25351.36624041  .00053013  00000+0  40318-2 0  9997",
        "tle_line2": "2 37470  98.6682 135.3168 0000524 304.7318  55.3854 15.01909134655319"
      },
      "geometry": {
        "type": "Point",
        "coordinates": [
          -20.352543748754538,
          68.7661188929525
        ]
      }
    },
    {
      "type": "Feature",
      "properties": {
        "norad_id": 37474,
        "name": "FENGYUN 1C DEB",
        "group": "fengyun-1c-debris",
        "lat": -52.48693063411513,
        "lon": 6.219761375776054,
        "alt_km": 691.2573261729785,
        "timestamp": "2025-12-18T10:51:26.097145+00:00",
        "meta_object_name": "FENGYUN 1C DEB",
        "meta_object_id": "1999-025EJU",
        "meta_epoch": "2025-12-17T07:46:09.276672",
        "meta_mean_motion": 14.7520815,
        "meta_eccentricity": 0.01320065,
        "meta_inclination": 99.1653,
        "meta_ra_of_asc_node": 197.0828,
        "meta_arg_of_pericenter": 120.7322,
        "meta_mean_anomaly": 240.6963,
        "meta_ephemeris_type": 0,
        "meta_classification_type": "U",
        "meta_norad_cat_id": 37474,
        "meta_element_set_no": 999,
        "meta_rev_at_epoch": 62443,
        "meta_bstar": 0.00094441555,
        "meta_mean_motion_dot": 7.29e-05,
        "meta_mean_motion_ddot": 0,
        "tle_line1": "1 37474U 99025EJU 25351.32371848  .00007290  00000+0  94442-3 0  9995",
        "tle_line2": "2 37474  99.1653 197.0828 0132006 120.7322 240.6963 14.75208150624436"
      },
      "geometry": {
        "type": "Point",
        "coordinates": [
          6.219761375776054,
          -52.48693063411513
        ]
      }
    },
    {
      "type": "Feature",
      "properties": {
        "norad_id": 37477,
        "name": "FENGYUN 1C DEB",
        "group": "fengyun-1c-debris",
        "lat": 32.30794347840475,
        "lon": -8.534661587941663,
        "alt_km": 809.6997291434882,
        "timestamp": "2025-12-18T10:51:26.097156+00:00",
        "meta_object_name": "FENGYUN 1C DEB",
        "meta_object_id": "1999-025EJX",
        "meta_epoch": "2025-12-16T18:06:36.022176",
        "meta_mean_motion": 14.19731482,
        "meta_eccentricity": 0.00371355,
        "meta_inclination": 98.6057,
        "meta_ra_of_asc_node": 355.3103,
        "meta_arg_of_pericenter": 94.8392,
        "meta_mean_anomaly": 265.7026,
        "meta_ephemeris_type": 0,
        "meta_classification_type": "U",
        "meta_norad_cat_id": 37477,
        "meta_element_set_no": 999,
        "meta_rev_at_epoch": 81971,
        "meta_bstar": 0.00055952668,
        "meta_mean_motion_dot": 1.15e-05,
        "meta_mean_motion_ddot": 0,
        "tle_line1": "1 37477U 99025EJX 25350.75458359  .00001150  00000+0  55953-3 0  9990",
        "tle_line2": "2 37477  98.6057 355.3103 0037135  94.8392 265.7026 14.19731482819713"
      },
      "geometry": {
        "type": "Point",
        "coordinates": [
          -8.534661587941663,
          32.30794347840475
        ]
      }
    },
    {
      "type": "Feature",
      "properties": {
        "norad_id": 37478,
        "name": "FENGYUN 1C DEB",
        "group": "fengyun-1c-debris",
        "lat": -80.34388843731448,
        "lon": 63.530591654424455,
        "alt_km": 911.4146855818472,
        "timestamp": "2025-12-18T10:51:26.097166+00:00",
        "meta_object_name": "FENGYUN 1C DEB",
        "meta_object_id": "1999-025EJY",
        "meta_epoch": "2025-12-14T05:55:23.732544",
        "meta_mean_motion": 13.02983973,
        "meta_eccentricity": 0.05482188,
        "meta_inclination": 99.6498,
        "meta_ra_of_asc_node": 330.5496,
        "meta_arg_of_pericenter": 315.7365,
        "meta_mean_anomaly": 40.1108,
        "meta_ephemeris_type": 0,
        "meta_classification_type": "U",
        "meta_norad_cat_id": 37478,
        "meta_element_set_no": 999,
        "meta_rev_at_epoch": 56581,
        "meta_bstar": 0.0055489953,
        "meta_mean_motion_dot": 3.525e-05,
        "meta_mean_motion_ddot": 0,
        "tle_line1": "1 37478U 99025EJY 25348.24680246  .00003525  00000+0  55490-2 0  9997",
        "tle_line2": "2 37478  99.6498 330.5496 0548218 315.7365  40.1108 13.02983973565818"
      },
      "geometry": {
        "type": "Point",
        "coordinates": [
          63.530591654424455,
          -80.34388843731448
        ]
      }
    },
    {
      "type": "Feature",
      "properties": {
        "norad_id": 37589,
        "name": "FENGYUN 1C DEB",
        "group": "fengyun-1c-debris",
        "lat": -22.40879345495274,
        "lon": 71.30667090472173,
        "alt_km": 810.4360457257026,
        "timestamp": "2025-12-18T10:51:26.097177+00:00",
        "meta_object_name": "FENGYUN 1C DEB",
        "meta_object_id": "1999-025EKH",
        "meta_epoch": "2025-12-14T22:19:52.787712",
        "meta_mean_motion": 14.08203479,
        "meta_eccentricity": 0.01182522,
        "meta_inclination": 99.0734,
        "meta_ra_of_asc_node": 251.544,
        "meta_arg_of_pericenter": 258.1684,
        "meta_mean_anomaly": 100.6202,
        "meta_ephemeris_type": 0,
        "meta_classification_type": "U",
        "meta_norad_cat_id": 37589,
        "meta_element_set_no": 999,
        "meta_rev_at_epoch": 82615,
        "meta_bstar": 0.0019842502,
        "meta_mean_motion_dot": 3.566e-05,
        "meta_mean_motion_ddot": 0,
        "tle_line1": "1 37589U 99025EKH 25348.93047208  .00003566  00000+0  19843-2 0  9998",
        "tle_line2": "2 37589  99.0734 251.5440 0118252 258.1684 100.6202 14.08203479826151"
      },
      "geometry": {
        "type": "Point",
        "coordinates": [
          71.30667090472173,
          -22.40879345495274
        ]
      }
    },
    {
      "type": "Feature",
      "properties": {
        "norad_id": 37594,
        "name": "FENGYUN 1C DEB",
        "group": "fengyun-1c-debris",
        "lat": 76.00118125103329,
        "lon": -120.29735946552299,
        "alt_km": 902.7425584652683,
        "timestamp": "2025-12-18T10:51:26.097188+00:00",
        "meta_object_name": "FENGYUN 1C DEB",
        "meta_object_id": "1999-025EKN",
        "meta_epoch": "2025-12-17T08:50:53.140704",
        "meta_mean_motion": 14.11122506,
        "meta_eccentricity": 0.00850392,
        "meta_inclination": 98.7342,
        "meta_ra_of_asc_node": 20.5782,
        "meta_arg_of_pericenter": 256.4735,
        "meta_mean_anomaly": 102.6951,
        "meta_ephemeris_type": 0,
        "meta_classification_type": "U",
        "meta_norad_cat_id": 37594,
        "meta_element_set_no": 999,
        "meta_rev_at_epoch": 77827,
        "meta_bstar": 0.00026135684,
        "meta_mean_motion_dot": 4.43e-06,
        "meta_mean_motion_ddot": 0,
        "tle_line1": "1 37594U 99025EKN 25351.36867061  .00000443  00000+0  26136-3 0  9997",
        "tle_line2": "2 37594  98.7342  20.5782 0085039 256.4735 102.6951 14.11122506778272"
      },
      "geometry": {
        "type": "Point",
        "coordinates": [
          -120.29735946552299,
          76.00118125103329
        ]
      }
    }
  ]
}